DELTA 2 R/B(1)          
1 20453U 90008B   26086.00692096  .00073879  00000+0  81030-3 0  9993
2 20453  35.6038  61.0117 0078404  60.4502 300.4023 15.58226849928839
COSMOS 2058             
1 20465U 90010A   26086.85468120  .00005019  00000+0  29482-3 0  9995
2 20465  82.4685  29.5278 0007425 272.0691  87.9689 15.11481776944982
SL-14 R/B               
1 20466U 90010B   26086.82994854  .00000504  00000+0  58116-4 0  9992
2 20466  82.4996 250.3438 0018558 237.8556 122.0859 14.83585090931177
SL-14 R/B               
1 20511U 90018B   26086.79767179  .00000426  00000+0  50389-4 0  9992
2 20511  82.5236 206.1674 0017015  36.7813 323.4565 14.82162307925261
HST                     
1 20580U 90037B   26086.81958346  .00007586  00000+0  24793-3 0  9993
2 20580  28.4722 276.2991 0001637 339.0447  21.0081 15.29755431776098
SL-16 R/B               
1 20625U 90046B   26086.79430392  .00000266  00000+0  16203-3 0  9991
2 20625  70.9973 259.8872 0016311 275.8665  84.0598 14.15015563850956
COSMOS 2084             
1 20663U 90055A   26086.85251416  .00002651  00000+0  19574-3 0  9992
2 20663  62.7892 273.6250 0014210 195.6224 164.4440 15.05746979939057
SL-6 R/B(2)             
1 20666U 90055D   26086.66055258  .00001725  00000+0  13899-3 0  9995
2 20666  62.7831 192.7333 0027740 351.1624   8.8983 15.03678607940898
SL-8 R/B                
1 20775U 90078B   26086.84940142  .00011591  00000+0  34331-3 0  9992
2 20775  82.9021 234.9691 0358589 312.7687  44.3868 14.89605627812003
SL-8 R/B                
1 21088U 91006B   26086.72223865  .00000079  00000+0  64259-4 0  9997
2 21088  82.9447 156.6397 0021919 348.3180 129.3166 13.77496921766557
OKEAN-3                 
1 21397U 91039A   26086.89808763  .00002134  00000+0  14865-3 0  9991
2 21397  82.5165 319.2017 0012319 269.3728  90.6087 15.04908206867777
COSMOS 2151             
1 21422U 91042A   26086.82630837  .00002529  00000+0  20010-3 0  9999
2 21422  82.4944  66.1754 0012514   6.6145 353.5241 15.00180388865914
SL-14 R/B               
1 21423U 91042B   26086.78703348  .00000484  00000+0  58169-4 0  9998
2 21423  82.4955 203.2153 0017128 176.7908 183.3419 14.81847431855750
ERS-1                   
1 21574U 91050A   26086.77011925  .00000297  00000+0  10945-3 0  9997
2 21574  98.7867 105.4584 0032638 147.0580 213.2650 14.39462526818334
ARIANE 40 R/B           
1 21610U 91050F   26086.84740155  .00000288  00000+0  98684-4 0  9997
2 21610  98.1975 138.3992 0003602  40.1291 320.0165 14.42906365821619
INTERCOSMOS 25          
1 21819U 91086A   26086.81813050  .00001507  00000+0  28854-3 0  9995
2 21819  82.6016 299.0489 1486563  77.8733 298.4445 12.12059081498887
SL-8 R/B                
1 21876U 92008B   26086.83840900  .00000032  00000+0  17260-4 0  9991
2 21876  82.9232 254.2737 0035947  84.3910  26.5510 13.75969593711910
SL-8 R/B                
1 21938U 92020B   26086.67003542  .00000033  00000+0  18235-4 0  9993
2 21938  82.9306 140.4118 0027734 246.2308 230.4762 13.75550507703608
USA 81                  
1 21949U 92023A   26086.82177587  .00000171  00000+0  56068-4 0  9995
2 21949  85.0049 120.9773 0001822  68.0453 292.0934 14.32373634 97383
COSMOS 2219             
1 22219U 92076A   26086.84214619 -.00000244  00000+0 -10320-3 0  9997
2 22219  71.0625 340.1253 0017961 180.5059 179.6049 14.14091148720940
SL-16 R/B               
1 22220U 92076B   26086.64879631 -.00000067  00000+0 -93498-5 0  9990
2 22220  71.0000 150.5463 0010668  62.7327  99.9266 14.16863988724378
COSMOS 2221             
1 22236U 92080A   26086.82769600  .00002444  00000+0  21372-3 0  9995
2 22236  82.5007 261.7013 0015437 128.5239 231.7369 14.96273260783503
SL-16 R/B               
1 22285U 92093B   26086.83104666  .00000227  00000+0  14081-3 0  9995
2 22285  71.0231 326.1850 0006467 276.0364  84.0022 14.15454031715727
COSMOS 2228             
1 22286U 92094A   26086.83193670  .00002753  00000+0  23481-3 0  9990
2 22286  82.5183 219.9392 0016792 238.4603 121.4981 14.97280097778774
SL-16 R/B               
1 22566U 93016B   26086.59055823 -.00000081  00000+0 -16982-4 0  9999
2 22566  71.0078 177.5868 0012336 291.0065  68.9738 14.15305364704707
COSMOS 2242             
1 22626U 93024A   26086.82197313  .00001955  00000+0  16905-3 0  9995
2 22626  82.5161 249.3676 0015035 241.9890 117.9812 14.96623881783103
SL-16 R/B               
1 22803U 93059B   26086.82800631 -.00000172  00000+0 -61510-4 0  9999
2 22803  70.9921 332.8792 0017468 190.2714 169.8055 14.17235168682108
ARIANE 40 R/B           
1 22830U 93061H   26086.78462354  .00000202  00000+0  89926-4 0  9996
2 22830  98.4883 155.3123 0009953 225.7038 134.3330 14.32870324696697
COSMOS 2278             
1 23087U 94023A   26086.84440331 -.00000241  00000+0 -10139-3 0  9992
2 23087  71.0519 137.1177 0009121 344.8745  15.2104 14.14375790647371
SL-16 R/B               
1 23088U 94023B   26086.59996358  .00000338  00000+0  19928-3 0  9990
2 23088  71.0014  33.2715 0005457 268.8909  91.1588 14.15014364648627
SL-16 R/B               
1 23343U 94074B   26086.87297265  .00000458  00000+0  67958-4 0  9992
2 23343  97.7083 116.9524 0007219 151.0753  21.2144 14.79427896689936
SL-16 R/B               
1 23405U 94077B   26086.78656771 -.00000032  00000+0  82838-5 0  9999
2 23405  70.9836 314.4187 0002005 197.5282 162.5772 14.15569177618795
ARIANE 40+ R/B          
1 23561U 95021B   26086.82649512  .00000275  00000+0  10140-3 0  9995
2 23561  98.4465 158.0606 0007944  89.7575  25.2431 14.39785073621852
SL-16 R/B               
1 23705U 95058B   26086.86509639 -.00000248  00000+0 -10255-3 0  9993
2 23705  71.0205 142.0990 0010112  92.1102 268.1179 14.15499512570422
SL-16 R/B               
1 24298U 96051B   26086.58799117  .00000091  00000+0  76074-4 0  9992
2 24298  70.7588 137.3571 0013609 119.2534 240.9948 14.12420658524171
ORBVIEW 2 (SEASTAR)     
1 24883U 97037A   26086.67974744  .00000284  00000+0  11513-3 0  9998
2 24883  98.8600 251.4712 0002464  33.4511 326.6829 14.35507134511054
SL-16 R/B               
1 25400U 98043G   26086.83371094  .00000064  00000+0  45666-4 0  9992
2 25400  98.8284  40.3291 0009252 327.5812  32.4798 14.26053853441578
SL-16 R/B               
1 25407U 98045B   26086.58456622 -.00000255  00000+0 -10451-3 0  9991
2 25407  71.0104 143.9442 0007921 340.2276  19.8539 14.16194394429634
ISS (ZARYA)             
1 25544U 98067A   26086.84204457  .00011920  00000+0  22728-3 0  9992
2 25544  51.6344 342.6225 0006212 240.1567 119.8804 15.48591753559148
CZ-4B R/B               
1 25732U 99025C   26086.88896243  .00000050  00000+0  44995-4 0  9993
2 25732  98.6589 130.7365 0036034 293.1656 240.4836 14.18268789390743
OKEAN-O                 
1 25860U 99039A   26086.76682410  .00000602  00000+0  85700-4 0  9998
2 25860  97.9405 146.4712 0000872  90.5057 269.6254 14.80363147437066
SL-16 R/B               
1 25861U 99039B   26086.72970163  .00000519  00000+0  72532-4 0  9996
2 25861  97.9927 145.7960 0014466 193.7724 166.3095 14.81755114439534
DELTA 2 R/B             
1 25876U 99041E   26086.84748272  .00000828  00000+0  17275-3 0  9997
2 25876  51.7606 228.7451 0502650  41.9822 321.8520 14.11877516365598
HELIOS 1B               
1 25977U 99064A   26086.73880051  .00001572  00000+0  17865-3 0  9996
2 25977  98.1674 349.5110 0001881  49.7918 310.3462 14.87765219687949
TERRA                   
1 25994U 99068A   26086.88522216  .00000414  00000+0  93399-4 0  9992
2 25994  97.9555 139.6215 0003547 113.5733  58.8636 14.61033348397738
SL-16 R/B               
1 26070U 00006B   26086.67532000  .00000314  00000+0  18358-3 0  9991
2 26070  71.0018  60.0158 0015802 161.6699 198.4996 14.15826378351109
TITAN 4B R/B            
1 26474U 00047B   26086.85018491  .00003708  00000+0  23350-3 0  9995
2 26474  67.9913 349.4392 0039809  14.1332 346.0921 15.09727624395653
ENVISAT                 
1 27386U 02009A   26086.88994566  .00000122  00000+0  53428-4 0  9994
2 27386  98.3756  40.0572 0001214  81.5484 294.3688 14.39043112261795
IDEFIX & ARIANE 42P R/B 
1 27422U 02021B   26086.81481534  .00000274  00000+0  12051-3 0  9992
2 27422  98.5890  25.2067 0012553 130.2966 229.9316 14.31038046246614
AQUA                    
1 27424U 02022A   26086.88202017  .00000971  00000+0  20338-3 0  9990
2 27424  98.4204  54.5826 0001092 117.9648 263.3257 14.62017125271395
CZ-4B R/B               
1 27432U 02024C   26086.76557693  .00000032  00000+0  39375-4 0  9991
2 27432  98.8800 140.0781 0049554 332.7797 137.1452 14.14550756231792
MIDORI II (ADEOS-II)    
1 27597U 02056A   26086.79484051  .00000294  00000+0  13331-3 0  9991
2 27597  98.7799  45.4011 0000799  21.3866 338.7349 14.29298226212880
H-2A R/B                
1 27601U 02056E   26086.85049606  .00000297  00000+0  11825-3 0  9996
2 27601  98.3232  46.5281 0071340 107.1534 306.9515 14.33772439216716
CZ-4B R/B               
1 28059U 03049C   26086.74446324  .00000324  00000+0  85736-4 0  9997
2 28059  98.6892  82.3599 0048216 175.2412 184.9252 14.55035729189221
CZ-2C R/B               
1 28222U 04012C   26086.76121368  .00057286  00000+0  54228-3 0  9990
2 28222  97.7185 153.7924 0013223 237.0962 122.9026 15.66684304207101
SL-16 R/B               
1 28353U 04021B   26086.70088669  .00000146  00000+0  10070-3 0  9995
2 28353  71.0007 194.6950 0004912 347.8061  12.2942 14.14594347125388
CZ-4B R/B               
1 28415U 04035C   26086.83836561  .00008079  00000+0  28250-3 0  9997
2 28415  97.3475 120.8646 0029984 263.6360  96.1466 15.29370387182684
CZ-2C R/B               
1 28480U 04046B   26086.78646458  .00000115  00000+0  57408-4 0  9990
2 28480  98.1976   0.6430 0140582 101.2630 260.4388 14.26998277111087
ARIANE 5 R/B            
1 28499U 04049H   26086.48507727  .00000746  00000+0  88994-4 0  9999
2 28499  98.2654 255.6117 0082945 293.7527  65.5003 14.85296655148438
